[{"OBJECT_NAME":"STARLINK-3605","OBJECT_ID":"2022-017AP","EPOCH":"2026-03-09T21:22:12.350208","MEAN_MOTION":15.08817665,"ECCENTRICITY":0.00014293,"INCLINATION":53.219,"RA_OF_ASC_NODE":328.298,"ARG_OF_PERICENTER":84.9132,"MEAN_ANOMALY":275.2023,"EPHEMERIS_TYPE":0,"CLASSIFICATION_TYPE":"U","NORAD_CAT_ID":51805,"ELEMENT_SET_NO":999,"REV_AT_EPOCH":22427,"BSTAR":0.0002416074,"MEAN_MOTION_DOT":3.557e-5,"MEAN_MOTION_DDOT":0},{"OBJECT_NAME":"DISKSAT A","OBJECT_ID":"2025-305D","EPOCH":"2026-03-09T13:08:58.223040","MEAN_MOTION":15.07741062,"ECCENTRICITY":0.0004082,"INCLINATION":45.0023,"RA_OF_ASC_NODE":251.6019,"ARG_OF_PERICENTER":318.1929,"MEAN_ANOMALY":41.8634,"EPHEMERIS_TYPE":0,"CLASSIFICATION_TYPE":"U","NORAD_CAT_ID":67222,"ELEMENT_SET_NO":999,"REV_AT_EPOCH":1226,"BSTAR":0.00090452,"MEAN_MOTION_DOT":0.00013824,"MEAN_MOTION_DDOT":0}]
